[{"OBJECT_NAME":"ONEWEB-0329","OBJECT_ID":"2021-075AJ","EPOCH":"2025-08-07T13:34:15.517632","MEAN_MOTION":13.17647946,"ECCENTRICITY":0.000163,"INCLINATION":87.9022,"RA_OF_ASC_NODE":68.3019,"ARG_OF_PERICENTER":92.571,"MEAN_ANOMALY":267.5608,"EPHEMERIS_TYPE":0,"CLASSIFICATION_TYPE":"U","NORAD_CAT_ID":49107,"ELEMENT_SET_NO":999,"REV_AT_EPOCH":19228,"BSTAR":0.00017807714,"MEAN_MOTION_DOT":8.2e-7,"MEAN_MOTION_DDOT":0},{"OBJECT_NAME":"ONEWEB-0330","OBJECT_ID":"2021-075AK","EPOCH":"2025-08-07T13:35:30.765120","MEAN_MOTION":13.17650409,"ECCENTRICITY":0.00014969,"INCLINATION":87.903,"RA_OF_ASC_NODE":68.304,"ARG_OF_PERICENTER":83.882,"MEAN_ANOMALY":276.2482,"EPHEMERIS_TYPE":0,"CLASSIFICATION_TYPE":"U","NORAD_CAT_ID":49108,"ELEMENT_SET_NO":999,"REV_AT_EPOCH":19232,"BSTAR":0.00013804442,"MEAN_MOTION_DOT":6.6e-7,"MEAN_MOTION_DDOT":0},{"OBJECT_NAME":"ONEWEB-0292","OBJECT_ID":"2021-083A","EPOCH":"2025-08-07T11:11:21.996384","MEAN_MOTION":13.13469924,"ECCENTRICITY":0.00018437,"INCLINATION":87.8978,"RA_OF_ASC_NODE":22.5888,"ARG_OF_PERICENTER":98.7031,"MEAN_ANOMALY":261.4307,"EPHEMERIS_TYPE":0,"CLASSIFICATION_TYPE":"U","NORAD_CAT_ID":49186,"ELEMENT_SET_NO":999,"REV_AT_EPOCH":18974,"BSTAR":-8.7380519e-5,"MEAN_MOTION_DOT":-1.9e-7,"MEAN_MOTION_DDOT":0},{"OBJECT_NAME":"ONEWEB-0303","OBJECT_ID":"2021-083B","EPOCH":"2025-08-07T13:18:44.955936","MEAN_MOTION":13.18685309,"ECCENTRICITY":0.00018136,"INCLINATION":87.9129,"RA_OF_ASC_NODE":37.7499,"ARG_OF_PERICENTER":96.5737,"MEAN_ANOMALY":263.5602,"EPHEMERIS_TYPE":0,"CLASSIFICATION_TYPE":"U","NORAD_CAT_ID":49187,"ELEMENT_SET_NO":999,"REV_AT_EPOCH":18864,"BSTAR":-1.3359043e-5,"MEAN_MOTION_DOT":8.0e-8,"MEAN_MOTION_DDOT":0},{"OBJECT_NAME":"ONEWEB-0306","OBJECT_ID":"2021-083C","EPOCH":"2025-08-07T13:04:29.934624","MEAN_MOTION":13.18685344,"ECCENTRICITY":0.00017923,"INCLINATION":87.913,"RA_OF_ASC_NODE":37.7373,"ARG_OF_PERICENTER":83.9575,"MEAN_ANOMALY":276.1761,"EPHEMERIS_TYPE":0,"CLASSIFICATION_TYPE":"U","NORAD_CAT_ID":49188,"ELEMENT_SET_NO":999,"REV_AT_EPOCH":18868,"BSTAR":1.8069361e-5,"MEAN_MOTION_DOT":2.0e-7,"MEAN_MOTION_DDOT":0},{"OBJECT_NAME":"ONEWEB-0307","OBJECT_ID":"2021-083D","EPOCH":"2025-08-07T11:02:50.763264","MEAN_MOTION":13.13470726,"ECCENTRICITY":0.00015284,"INCLINATION":87.8964,"RA_OF_ASC_NODE":22.592,"ARG_OF_PERICENTER":85.5467,"MEAN_ANOMALY":274.5837,"EPHEMERIS_TYPE":0,"CLASSIFICATION_TYPE":"U","NORAD_CAT_ID":49189,"ELEMENT_SET_NO":999,"REV_AT_EPOCH":18974,"BSTAR":0.00021512243,"MEAN_MOTION_DOT":9.1e-7,"MEAN_MOTION_DDOT":0},{"OBJECT_NAME":"ONEWEB-0320","OBJECT_ID":"2021-083E","EPOCH":"2025-08-07T11:24:43.880832","MEAN_MOTION":13.18686513,"ECCENTRICITY":0.00017883,"INCLINATION":87.9128,"RA_OF_ASC_NODE":37.7797,"ARG_OF_PERICENTER":91.6675,"MEAN_ANOMALY":268.4662,"EPHEMERIS_TYPE":0,"CLASSIFICATION_TYPE":"U","NORAD_CAT_ID":49190,"ELEMENT_SET_NO":999,"REV_AT_EPOCH":18863,"BSTAR":0.00010073011,"MEAN_MOTION_DOT":5.3e-7,"MEAN_MOTION_DDOT":0},{"OBJECT_NAME":"ONEWEB-0321","OBJECT_ID":"2021-083F","EPOCH":"2025-08-07T08:10:22.524672","MEAN_MOTION":13.20772472,"ECCENTRICITY":0.00018645,"INCLINATION":87.9286,"RA_OF_ASC_NODE":336.9699,"ARG_OF_PERICENTER":89.0055,"MEAN_ANOMALY":271.1292,"EPHEMERIS_TYPE":0,"CLASSIFICATION_TYPE":"U","NORAD_CAT_ID":49191,"ELEMENT_SET_NO":999,"REV_AT_EPOCH":19540,"BSTAR":0.00024158159,"MEAN_MOTION_DOT":1.11e-6,"MEAN_MOTION_DDOT":0},{"OBJECT_NAME":"ONEWEB-0322","OBJECT_ID":"2021-083G","EPOCH":"2025-08-07T10:56:45.259296","MEAN_MOTION":13.13469535,"ECCENTRICITY":0.00017867,"INCLINATION":87.8978,"RA_OF_ASC_NODE":22.5849,"ARG_OF_PERICENTER":79.4791,"MEAN_ANOMALY":280.6539,"EPHEMERIS_TYPE":0,"CLASSIFICATION_TYPE":"U","NORAD_CAT_ID":49192,"ELEMENT_SET_NO":999,"REV_AT_EPOCH":18973,"BSTAR":0.00053237883,"MEAN_MOTION_DOT":2.07e-6,"MEAN_MOTION_DDOT":0},{"OBJECT_NAME":"ONEWEB-0324","OBJECT_ID":"2021-083H","EPOCH":"2025-08-07T12:54:59.879520","MEAN_MOTION":13.18686703,"ECCENTRICITY":0.00016572,"INCLINATION":87.913,"RA_OF_ASC_NODE":37.7466,"ARG_OF_PERICENTER":90.5649,"MEAN_ANOMALY":269.5673,"EPHEMERIS_TYPE":0,"CLASSIFICATION_TYPE":"U","NORAD_CAT_ID":49193,"ELEMENT_SET_NO":999,"REV_AT_EPOCH":18866,"BSTAR":2.6408065e-5,"MEAN_MOTION_DOT":2.3e-7,"MEAN_MOTION_DDOT":0},{"OBJECT_NAME":"ONEWEB-0325","OBJECT_ID":"2021-083J","EPOCH":"2025-08-07T12:59:44.772288","MEAN_MOTION":13.18685035,"ECCENTRICITY":0.0001847,"INCLINATION":87.9131,"RA_OF_ASC_NODE":37.763,"ARG_OF_PERICENTER":88.1208,"MEAN_ANOMALY":272.0136,"EPHEMERIS_TYPE":0,"CLASSIFICATION_TYPE":"U","NORAD_CAT_ID":49194,"ELEMENT_SET_NO":999,"REV_AT_EPOCH":18867,"BSTAR":-2.5153306e-5,"MEAN_MOTION_DOT":3.0e-8,"MEAN_MOTION_DDOT":0},{"OBJECT_NAME":"ONEWEB-0326","OBJECT_ID":"2021-083K","EPOCH":"2025-08-07T11:32:03.240384","MEAN_MOTION":13.18685605,"ECCENTRICITY":0.00019493,"INCLINATION":87.9128,"RA_OF_ASC_NODE":37.7642,"ARG_OF_PERICENTER":100.7426,"MEAN_ANOMALY":259.3926,"EPHEMERIS_TYPE":0,"CLASSIFICATION_TYPE":"U","NORAD_CAT_ID":49195,"ELEMENT_SET_NO":999,"REV_AT_EPOCH":18865,"BSTAR":0.00014250531,"MEAN_MOTION_DOT":6.9e-7,"MEAN_MOTION_DDOT":0},{"OBJECT_NAME":"ONEWEB-0327","OBJECT_ID":"2021-083L","EPOCH":"2025-08-07T13:20:55.349088","MEAN_MOTION":13.18686572,"ECCENTRICITY":0.00019802,"INCLINATION":87.9125,"RA_OF_ASC_NODE":37.7774,"ARG_OF_PERICENTER":98.8104,"MEAN_ANOMALY":261.3253,"EPHEMERIS_TYPE":0,"CLASSIFICATION_TYPE":"U","NORAD_CAT_ID":49196,"ELEMENT_SET_NO":999,"REV_AT_EPOCH":18868,"BSTAR":-3.4155673e-5,"MEAN_MOTION_DOT":-1.0e-8,"MEAN_MOTION_DDOT":0},{"OBJECT_NAME":"ONEWEB-0328","OBJECT_ID":"2021-083M","EPOCH":"2025-08-07T12:31:48.800640","MEAN_MOTION":13.13467738,"ECCENTRICITY":0.00016365,"INCLINATION":87.897,"RA_OF_ASC_NODE":22.5111,"ARG_OF_PERICENTER":96.2129,"MEAN_ANOMALY":263.9186,"EPHEMERIS_TYPE":0,"CLASSIFICATION_TYPE":"U","NORAD_CAT_ID":49197,"ELEMENT_SET_NO":999,"REV_AT_EPOCH":18972,"BSTAR":0.0037023709,"MEAN_MOTION_DOT":1.365e-5,"MEAN_MOTION_DDOT":0},{"OBJECT_NAME":"ONEWEB-0331","OBJECT_ID":"2021-083N","EPOCH":"2025-08-07T13:11:37.233600","MEAN_MOTION":13.1868527,"ECCENTRICITY":0.0001721,"INCLINATION":87.9127,"RA_OF_ASC_NODE":37.7429,"ARG_OF_PERICENTER":102.7584,"MEAN_ANOMALY":257.374,"EPHEMERIS_TYPE":0,"CLASSIFICATION_TYPE":"U","NORAD_CAT_ID":49198,"ELEMENT_SET_NO":999,"REV_AT_EPOCH":18867,"BSTAR":9.2505524e-5,"MEAN_MOTION_DOT":4.9e-7,"MEAN_MOTION_DDOT":0},{"OBJECT_NAME":"ONEWEB-0333","OBJECT_ID":"2021-083P","EPOCH":"2025-08-07T12:24:30.108960","MEAN_MOTION":13.13469878,"ECCENTRICITY":0.0001841,"INCLINATION":87.8971,"RA_OF_ASC_NODE":22.5829,"ARG_OF_PERICENTER":91.6282,"MEAN_ANOMALY":268.5058,"EPHEMERIS_TYPE":0,"CLASSIFICATION_TYPE":"U","NORAD_CAT_ID":49199,"ELEMENT_SET_NO":999,"REV_AT_EPOCH":18973,"BSTAR":0.00086808946,"MEAN_MOTION_DOT":3.3e-6,"MEAN_MOTION_DDOT":0},{"OBJECT_NAME":"ONEWEB-0334","OBJECT_ID":"2021-083Q","EPOCH":"2025-08-07T14:02:39.132960","MEAN_MOTION":13.20771882,"ECCENTRICITY":0.00024521,"INCLINATION":87.9288,"RA_OF_ASC_NODE":336.9547,"ARG_OF_PERICENTER":75.3797,"MEAN_ANOMALY":284.7609,"EPHEMERIS_TYPE":0,"CLASSIFICATION_TYPE":"U","NORAD_CAT_ID":49200,"ELEMENT_SET_NO":999,"REV_AT_EPOCH":19539,"BSTAR":0.00020801545,"MEAN_MOTION_DOT":9.8e-7,"MEAN_MOTION_DDOT":0}]
