ONEWEB-0329             
1 49107U 21075AJ  25219.56545738  .00000082  00000+0  17808-3 0  9994
2 49107  87.9022  68.3019 0001630  92.5710 267.5608 13.17647946192286
ONEWEB-0330             
1 49108U 21075AK  25219.56632830  .00000066  00000+0  13804-3 0  9999
2 49108  87.9030  68.3040 0001496  83.8820 276.2482 13.17650409192325
ONEWEB-0292             
1 49186U 21083A   25219.46622681 -.00000019  00000+0 -87381-4 0  9998
2 49186  87.8978  22.5888 0001843  98.7031 261.4307 13.13469924189748
ONEWEB-0303             
1 49187U 21083B   25219.55468699  .00000008  00000+0 -13359-4 0  9997
2 49187  87.9129  37.7499 0001813  96.5737 263.5602 13.18685309188641
ONEWEB-0306             
1 49188U 21083C   25219.54479091  .00000020  00000+0  18069-4 0  9991
2 49188  87.9130  37.7373 0001792  83.9575 276.1761 13.18685344188680
ONEWEB-0307             
1 49189U 21083D   25219.46030976  .00000091  00000+0  21512-3 0  9992
2 49189  87.8964  22.5920 0001528  85.5467 274.5837 13.13470726189745
ONEWEB-0320             
1 49190U 21083E   25219.47550788  .00000053  00000+0  10073-3 0  9991
2 49190  87.9128  37.7797 0001788  91.6675 268.4662 13.18686513188630
ONEWEB-0321             
1 49191U 21083F   25219.34053848  .00000111  00000+0  24158-3 0  9997
2 49191  87.9286 336.9699 0001864  89.0055 271.1292 13.20772472195405
ONEWEB-0322             
1 49192U 21083G   25219.45607939  .00000207  00000+0  53238-3 0  9993
2 49192  87.8978  22.5849 0001786  79.4791 280.6539 13.13469535189734
ONEWEB-0324             
1 49193U 21083H   25219.53819305  .00000023  00000+0  26408-4 0  9991
2 49193  87.9130  37.7466 0001657  90.5649 269.5673 13.18686703188661
ONEWEB-0325             
1 49194U 21083J   25219.54149042  .00000003  00000+0 -25153-4 0  9992
2 49194  87.9131  37.7630 0001847  88.1208 272.0136 13.18685035188672
ONEWEB-0326             
1 49195U 21083K   25219.48059306  .00000069  00000+0  14251-3 0  9996
2 49195  87.9128  37.7642 0001949 100.7426 259.3926 13.18685605188654
ONEWEB-0327             
1 49196U 21083L   25219.55619617 -.00000001  00000+0 -34156-4 0  9997
2 49196  87.9125  37.7774 0001980  98.8104 261.3253 13.18686572188686
ONEWEB-0328             
1 49197U 21083M   25219.52209260  .00001365  00000+0  37024-2 0  9991
2 49197  87.8970  22.5111 0001636  96.2129 263.9186 13.13467738189723
ONEWEB-0331             
1 49198U 21083N   25219.54973650  .00000049  00000+0  92506-4 0  9991
2 49198  87.9127  37.7429 0001721 102.7584 257.3740 13.18685270188676
ONEWEB-0333             
1 49199U 21083P   25219.51701515  .00000330  00000+0  86809-3 0  9999
2 49199  87.8971  22.5829 0001841  91.6282 268.5058 13.13469878189736
ONEWEB-0334             
1 49200U 21083Q   25219.58517515  .00000098  00000+0  20802-3 0  9996
2 49200  87.9288 336.9547 0002452  75.3797 284.7609 13.20771882195399
